satname,norad_id,inclination_deg,eccentricity,mean_motion_rev_per_day,perigee_km,apogee_km,l1,l2
STARLINK-1278,45408,53.0447,0.0003388,15.61832517,380.073328909416,384.6542442423988,1 45408U 20019BA  26098.40648709  .00128721  00000+0  14398-2 0  9993,2 45408  53.0447 345.9374 0003388 176.5780 183.5257 15.61832517334591
STARLINK-1296,45412,53.1593,0.0002761,15.33046524,464.839147989881,468.6188830036381,1 45412U 20019BE  26097.93466713  .00059489  00000+0  18345-2 0  9998,2 45412  53.1593 353.1816 0002761 171.3902 188.7148 15.33046524334459
STARLINK-1309,45414,53.0654,0.0006178,15.61094538,380.3162675567419,388.67217469356274,1 45414U 20019BG  26098.39836641  .00115379  00000+0  13300-2 0  9999,2 45414  53.0654 339.4498 0006178 153.7929 206.3398 15.61094538334666
STARLINK-1316,45415,53.16,0.0002265,15.33138783,464.904112514163,468.0047124240109,1 45415U 20019BH  26098.43604799  .00050007  00000+0  15414-2 0  9996,2 45415  53.1600 350.8931 0002265 193.5437 166.5504 15.33138783334551
STARLINK-1286,45417,53.0498,0.0003832,15.53455682,404.045561086572,409.24541838670575,1 45417U 20019BK  26098.42069151  .00037364  00000+0  58366-3 0  9999,2 45417  53.0498 347.6128 0003832 143.2512 216.8761 15.53455682334844
STARLINK-1308,45419,53.0529,0.0006362,15.56577362,393.2605995402064,401.88201078769634,1 45419U 20019BM  26098.47126419  .00093237  00000+0  12795-2 0  9993,2 45419  53.0529   8.4830 0006362 144.5031 215.6405 15.56577362334300
STARLINK-1329,45531,53.0451,4.88e-05,15.66487966,368.63352019094964,369.2920371293467,1 45531U 20025A   26098.26546191  .00057743  00000+0  54519-3 0  9998,2 45531  53.0451 296.8407 0000488 294.8276  65.2688 15.66487966330078
STARLINK-1338,45532,53.0479,0.0002281,15.6034595,385.11394834859675,388.20004737041927,1 45532U 20025B   26098.54365950  .00106432  00000+0  12653-2 0  9994,2 45532  53.0479 299.8850 0002281 132.8926 227.2278 15.60345950330053
STARLINK-1350,45535,53.0722,0.0001417,15.36934467,454.2123427686938,456.1489049832999,1 45535U 20025E   26098.58154701  .00011408  00000+0  32137-3 0  9999,2 45535  53.0722 252.6751 0001417 117.9627 242.1519 15.36934467330757
STARLINK-1362,45538,53.1614,0.0001034,15.31434661,470.8228154995977,472.2393268567175,1 45538U 20025H   26098.62718908 -.00168249  00000+0 -55788-2 0  9996,2 45538  53.1614 321.8552 0001034  45.6969 314.4117 15.31434661329762
STARLINK-1368,45540,53.1587,0.0001343,15.32312773,467.99440061231326,469.83351850005056,1 45540U 20025K   26098.58339120  .00067231  00000+0  21179-2 0  9993,2 45540  53.1587 322.4380 0001343  96.8361 302.0212 15.32312773  5868
STARLINK-1371,45542,53.0489,0.0001517,15.52437289,408.5826583057378,410.6420614615263,1 45542U 20025M   26098.60946324  .00088002  00000+0  14070-2 0  9999,2 45542  53.0489 305.9415 0001517 217.2939 142.7965 15.52437289329975
STARLINK-1372,45543,53.1606,0.0001098,15.32431326,467.8090500905073,469.31258493123187,1 45543U 20025N   26098.58339120  .00059997  00000+0  18861-2 0  9990,2 45543  53.1606 322.1323 0001098 104.0111  63.8485 15.32431326  5702
STARLINK-1373,45544,53.0487,0.0002901,15.5656453,395.642899700676,399.5741872650042,1 45544U 20025P   26098.54879972  .00104909  00000+0  14383-2 0  9990,2 45544  53.0487 304.9435 0002901 155.1258 204.9893 15.56564530329984
STARLINK-1327,45555,53.0449,0.0004749,15.59210616,386.72628092221294,393.1546008755786,1 45555U 20025AA  26098.50523416  .00062064  00000+0  77704-3 0  9999,2 45555  53.0449 282.0899 0004749 185.4161 174.6800 15.59210616330298
STARLINK-1356,45564,53.0501,0.0003566,15.4976423,414.99190560923125,419.838493437931,1 45564U 20025AK  26098.25248166  .00100594  00000+0  17646-2 0  9996,2 45564  53.0501 292.6107 0003566 162.5639 197.5492 15.49764230330126
STARLINK-1357,45565,53.0471,0.0004802,15.6244623,377.3478243393738,383.83890898351456,1 45565U 20025AL  26098.58339120  .00098696  00000+0  10831-2 0  9992,2 45565  53.0471 252.6729 0004802 272.1158  35.5301 15.62446230  5937
STARLINK-1361,45567,53.0485,0.000446,15.52969909,405.0336369925899,411.08692496722324,1 45567U 20025AN  26098.60339653  .00093083  00000+0  14582-2 0  9990,2 45567  53.0485 290.3176 0004460 136.4922 223.6439 15.52969909330193
STARLINK-1363,45568,53.0378,0.0001712,15.85464783,313.8704726697806,316.1622083735756,1 45568U 20025AP  26098.58339120  .00168414  00000+0  67682-3 0  9998,2 45568  53.0378 247.5351 0001712 197.7082  46.5544 15.85464783  5990
STARLINK-1366,45569,53.038,0.000222,15.83786829,318.2559821464647,321.2298408271654,1 45569U 20025AQ  26098.58339120  .00132241  00000+0  57887-3 0  9994,2 45569  53.0380 248.5860 0002220 183.4295 202.0839 15.83786829  5940
STARLINK-1376,45570,53.161,0.0001212,15.33119652,465.6817810263783,467.340923787001,1 45570U 20025AR  26098.54537265  .00053386  00000+0  16451-2 0  9995,2 45570  53.1610 298.8830 0001212 242.1353 117.9527 15.33119652330074
STARLINK-1320,45572,53.0466,0.0003523,15.74223325,344.4729987889705,349.21141913960673,1 45572U 20025AT  26098.44850601  .00087963  00000+0  59755-3 0  9991,2 45572  53.0466 198.3319 0003523 107.6322 252.5082 15.74223325331484
STARLINK-1321,45573,53.0461,0.0002384,15.54087612,403.1890725203557,406.42317980290863,1 45573U 20025AU  26098.58339120  .00047451  00000+0  72168-3 0  9996,2 45573  53.0461 274.8211 0002384 220.6245  87.3498 15.54087612  5911
STARLINK-1331,45578,53.0506,0.0004656,15.53759854,402.60139585862,408.9185607248055,1 45578U 20025AZ  26098.60262802  .00091999  00000+0  14009-2 0  9991,2 45578  53.0506 281.4462 0004656 219.7414 140.3255 15.53759854330329
STARLINK-1333,45580,53.1604,0.0001465,15.30219292,474.1534599504066,476.16147522941174,1 45580U 20025BB  26097.88907270  .00007544  00000+0  26640-3 0  9996,2 45580  53.1604 302.1817 0001465  83.4205 276.6962 15.30219292329975
STARLINK-1335,45581,53.1575,0.0001843,15.30064201,474.3574232240735,476.88371826464936,1 45581U 20025BC  26098.50207286  .00085070  00000+0  28636-2 0  9993,2 45581  53.1575 296.7297 0001843  64.5367 295.5824 15.30064201330092
STARLINK-1337,45582,53.0504,0.0004688,15.64491381,371.5362056429185,377.8676674298149,1 45582U 20025BD  26098.58577967  .00079976  00000+0  81295-3 0  9997,2 45582  53.0504 275.9434 0004688 231.6388 128.4205 15.64491381330385
STARLINK-1347,45586,53.0407,0.000172,15.60809037,384.1555555884015,386.4821844076814,1 45586U 20025BH  26098.58339120  .00091962  00000+0  10768-2 0  9993,2 45586  53.0407 244.4654 0001720 262.6793  59.9300 15.60809037  5889
STARLINK-1364,45589,53.0476,0.0005386,15.55126961,398.13192928872195,405.4352597531406,1 45589U 20025BL  26098.00002315  .00141492  00000+0  20329-2 0  9994,2 45589  53.0476 282.1024 0005386 183.4115 259.7009 15.55126961  5886
STARLINK-1365,45590,53.0513,0.0003838,15.50356457,413.07704678832397,418.291984183611,1 45590U 20025BM  26098.30935087  .00097785  00000+0  16806-2 0  9990,2 45590  53.0513 311.9177 0003838 170.8288 189.2791 15.50356457329874
STARLINK-1443,45660,53.1367,0.0001824,15.28000444,480.5391733756296,483.04167489995507,1 45660U 20035D   26098.50579038  .00045422  00000+0  16434-2 0  9999,2 45660  53.1367 287.1276 0001824 184.6836 175.4147 15.28000444323311
STARLINK-1446,45663,53.0229,0.0002854,15.44246917,431.6476893102963,435.5358240846199,1 45663U 20035G   26098.59569384  .00017815  00000+0  38966-3 0  9994,2 45663  53.0229 217.1780 0002854  13.7838 346.3245 15.44246917324292
STARLINK-1448,45665,53.0475,0.0005506,15.59276701,386.0228123957422,393.475608690791,1 45665U 20035J   26098.58339120  .00072032  00000+0  89731-3 0  9996,2 45665  53.0475 268.1006 0005506 217.2086  94.5393 15.59276701  5817
STARLINK-1451,45668,53.0522,0.0001148,15.11724379,530.1478551995078,531.734179512292,1 45668U 20035M   26098.51477823  .00027227  00000+0  15909-2 0  9996,2 45668  53.0522 291.2429 0001148 118.1921 241.9187 15.11724379323251
STARLINK-1452,45669,53.0298,0.0002491,15.49633632,416.1041314524209,419.4898657705289,1 45669U 20035N   26098.64953816  .00081876  00000+0  14480-2 0  9995,2 45669  53.0298 238.4763 0002491 172.4424 187.6621 15.49633632324004
STARLINK-1453,45670,53.0427,1.69e-05,15.59758971,388.2397196183965,388.4684270166754,1 45670U 20035P   26098.58339120  .00082623  00000+0  10089-2 0  9998,2 45670  53.0427 228.6126 0000169  31.0742   5.9130 15.59758971  5825
STARLINK-1454,45671,53.0474,0.0004905,15.57785744,390.7451193399038,397.38865135142714,1 45671U 20035Q   26098.58339120  .00043912  00000+0  58329-3 0  9997,2 45671  53.0474 268.5173 0004905 195.3253 131.8469 15.57785744  5916
STARLINK-1456,45673,53.0472,0.0003941,15.55648321,397.5973250897405,402.9400644583611,1 45673U 20035S   26098.42546305  .00122915  00000+0  17379-2 0  9997,2 45673  53.0472 263.1111 0003941 283.7074  76.3497 15.55648321323645
STARLINK-1457,45674,53.0414,0.000224,15.89200584,303.0260584488842,306.0198901173626,1 45674U 20035T   26098.58339120  .00182169  00000+0  60801-3 0  9996,2 45674  53.0414 231.6847 0002240 264.5576  71.0832 15.89200584  5793
STARLINK-1458,45675,53.05,0.0004965,15.47664426,420.1833747706187,426.93746030623424,1 45675U 20035U   26098.49889326  .00093124  00000+0  17600-2 0  9995,2 45675  53.0500 273.5365 0004965 210.3839 149.6881 15.47664426323463
STARLINK-1460,45676,53.1604,0.0001392,15.30190492,474.2894681806383,476.19744930035176,1 45676U 20035V   26098.25196332  .00001324  00000+0  56854-4 0  9995,2 45676  53.1604 287.6343 0001392  80.5191 279.5967 15.30190492323244
STARLINK-1392,45677,53.1565,0.0001916,15.32885792,465.895921833373,468.51905784187875,1 45677U 20035W   26098.58339120  .00058571  00000+0  18158-2 0  9995,2 45677  53.1565 286.0555 0001916 107.6630 239.2337 15.32885792  5854
STARLINK-1394,45679,53.0461,0.000527,15.55707506,396.52464701676763,403.6689054169001,1 45679U 20035Y   26098.61508278  .00102980  00000+0  14573-2 0  9994,2 45679  53.0461 252.4141 0005270 286.1390  73.9040 15.55707506323804
